NORAD_CAT_ID,OBJECT_NAME,OBJECT_TYPE,EPOCH,MEAN_MOTION,ECCENTRICITY,INCLINATION,RA_OF_ASC_NODE,ARG_OF_PERICENTER,MEAN_ANOMALY,BSTAR,MEAN_MOTION_DOT,MEAN_MOTION_DDOT,TLE_LINE0,TLE_LINE1,TLE_LINE2,SEMIMAJOR_AXIS,PERIOD,APOGEE,PERIGEE,DECAYED
53968.0,STARLINK-4629,PAYLOAD,2022-10-28 14:00:01,15.52375476,0.0001631999999999,53.2174,340.2793,39.449,95.3038,-0.021281,-0.01203609,0.0,0 STARLINK-4629,1 53968U 22125E   22301.58335648 -.01203609  00000-0 -21281-1 0  9991,2 53968  53.2174 340.2793 0001632  39.4490  95.3038 15.52375476  1301,6787.93,92.761,410.902,408.687,0.0
53968.0,STARLINK-4629,PAYLOAD,2022-10-28 22:00:01,15.51518037,0.0001658,53.2174,338.6787,43.2275,154.9075,-0.021972,-0.01204652,0.0,0 STARLINK-4629,1 53968U 22125E   22301.91668981 -.01204652  00000-0 -21972-1 0  9993,2 53968  53.2174 338.6787 0001658  43.2275 154.9075 15.51518037  1301,6790.43,92.812,413.421,411.169,0.0
53968.0,STARLINK-4629,PAYLOAD,2022-10-29 04:00:00,15.50796376,0.0001647,53.2173,337.4825,47.3737,107.5561,-0.017342,-0.00934223,0.0,0 STARLINK-4629,1 53968U 22125E   22302.16667824 -.00934223  00000-0 -17342-1 0  9995,2 53968  53.2173 337.4825 0001647  47.3737 107.5561 15.50796376  4036,6792.5369999999975,92.856,415.52,413.283,0.0
53968.0,STARLINK-4629,PAYLOAD,2022-10-29 12:00:00,15.49836862,0.0001753,53.2171,335.8917,45.9334,170.5602,0.004596,0.00269107,0.0,0 STARLINK-4629,1 53968U 22125E   22302.50001157  .00269107  00000-0  45960-2 0  9992,2 53968  53.2171 335.8917 0001753  45.9334 170.5602 15.49836862  1309,6795.34,92.913,418.396,416.014,0.0
53968.0,STARLINK-4629,PAYLOAD,2022-10-29 22:00:01,15.49851343,0.0001592,53.2168,333.9019,48.8467,333.7634,0.0014037,0.00079939,0.0,0 STARLINK-4629,1 53968U 22125E   22302.91668981  .00079939  00000-0  14037-2 0  9994,2 53968  53.2168 333.9019 0001592  48.8467 333.7634 15.49851343  1306,6795.2980000000025,92.912,418.244,416.081,0.0
53968.0,STARLINK-4629,PAYLOAD,2022-10-30 00:00:00,15.49871128,0.0001587,53.2168,333.5035,50.3635,77.4012,0.001081,0.00061354,0.0,0 STARLINK-4629,1 53968U 22125E   22303.00001157  .00061354  00000-0  10810-2 0  9998,2 53968  53.2168 333.5035 0001587  50.3635  77.4012 15.49871128  4161,6795.24,92.911,418.1830000000001,416.026,0.0
53968.0,STARLINK-4629,PAYLOAD,2022-10-30 14:00:01,15.49963363,0.0001659,53.2165,330.7158,44.0169,100.4585,0.00094069,0.00053452,0.0,0 STARLINK-4629,1 53968U 22125E   22303.58334491  .00053452  00000-0  94069-3 0  9990,2 53968  53.2165 330.7158 0001659  44.0169 100.4585 15.49963363  1303,6794.97,92.905,417.962,415.708,0.0
53968.0,STARLINK-4629,PAYLOAD,2022-10-30 22:00:01,15.50140293,0.0001383,53.217,329.1184,50.7344,154.8354,-0.016887,-0.00880192,0.0,0 STARLINK-4629,1 53968U 22125E   22303.91668981 -.00880192  00000-0 -16887-1 0  9992,2 53968  53.2170 329.1184 0001383  50.7344 154.8354 15.50140293  1301,6794.453,92.895,417.258,415.378,0.0
53968.0,STARLINK-4629,PAYLOAD,2022-10-31 14:00:01,15.48535042,0.000112,53.2177,325.9335,49.6808,276.9151,-0.015222,-0.00759476,0.0,0 STARLINK-4629,1 53968U 22125E   22304.58334491 -.00759476  00000-0 -15222-1 0  9994,2 53968  53.2177 325.9335 0001120  49.6808 276.9151 15.48535042  1309,6799.148,92.991,421.774,420.251,0.0
53968.0,STARLINK-4629,PAYLOAD,2022-10-31 20:00:01,15.48194577,0.0001257,53.2176,324.7397,59.6957,221.2627,-0.024674,-0.01201916,0.0,0 STARLINK-4629,1 53968U 22125E   22304.83335648 -.01201916  00000-0 -24674-1 0  9990,2 53968  53.2176 324.7397 0001257  59.6957 221.2627 15.48194577  4443,6800.145,93.012,422.864,421.155,0.0
53968.0,STARLINK-4629,PAYLOAD,2022-10-31 22:00:01,15.479781699999998,0.0001222,53.2174,324.342,50.6063,335.0392,-0.024796,-0.01198977,0.0,0 STARLINK-4629,1 53968U 22125E   22304.91668981 -.01198977  00000-0 -24796-1 0  9995,2 53968  53.2174 324.3420 0001222  50.6063 335.0392 15.47978170  1308,6800.778,93.025,423.474,421.812,0.0
53968.0,STARLINK-4629,PAYLOAD,2022-11-01 12:00:00,15.4647791,0.000147,53.2174,321.5676,39.7,356.8777,-0.026094,-0.01197524,0.0,0 STARLINK-4629,1 53968U 22125E   22305.50001157 -.01197524  00000-0 -26094-1 0  9997,2 53968  53.2174 321.5676 0001470  39.7000 356.8777 15.46477910  4557,6805.176,93.115,428.041,426.041,0.0
53968.0,STARLINK-4629,PAYLOAD,2022-11-01 14:00:01,15.46270487,0.0001635,53.2172,321.1717,46.3943,94.3513,-0.026527,-0.0120772,0.0,0 STARLINK-4629,1 53968U 22125E   22305.58334491 -.01207720  00000-0 -26527-1 0  9996,2 53968  53.2172 321.1717 0001635  46.3943  94.3513 15.46270487  1302,6805.785,93.127,428.762,426.537,0.0
53968.0,STARLINK-4629,PAYLOAD,2022-11-01 22:00:00,15.45407035,0.0001544,53.2173,319.5861,47.8542,148.9349,-0.027105,-0.01198572,0.0,0 STARLINK-4629,1 53968U 22125E   22305.91667824 -.01198572  00000-0 -27105-1 0  9999,2 53968  53.2173 319.5861 0001544  47.8542 148.9349 15.45407035  1307,6808.319,93.179,431.236,429.133,0.0
53968.0,STARLINK-4629,PAYLOAD,2022-11-02 04:00:00,15.44764739,0.0001641,53.2177,318.4005,44.72,103.4222,-0.027725,-0.01199162,0.0,0 STARLINK-4629,1 53968U 22125E   22306.16667824 -.01199162  00000-0 -27725-1 0  9991,2 53968  53.2177 318.4005 0001641  44.7200 103.4222 15.44764739  4657,6810.206,93.218,433.189,430.954,0.0
53968.0,STARLINK-4629,PAYLOAD,2022-11-02 14:00:01,15.43695619,0.000144,53.2172,316.427,43.8444,261.9315,-0.028838,-0.01202156,0.0,0 STARLINK-4629,1 53968U 22125E   22306.58334491 -.01202156  00000-0 -28838-1 0  9992,2 53968  53.2172 316.4270 0001440  43.8444 261.9315 15.43695619  1302,6813.35,93.283,436.197,434.234,0.0
53968.0,STARLINK-4629,PAYLOAD,2022-11-02 18:00:02,15.43265316,0.0001634,53.2175,315.637,44.8986,107.5466,-0.029192,-0.01199539,0.0,0 STARLINK-4629,1 53968U 22125E   22306.75002315 -.01199539  00000-0 -29192-1 0  9992,2 53968  53.2175 315.6370 0001634  44.8986 107.5466 15.43265316  4744,6814.6169999999975,93.309,437.595,435.36800000000005,0.0
53968.0,STARLINK-4629,PAYLOAD,2022-11-02 22:00:00,15.42834303,0.0001254,53.2172,314.848,50.3985,308.3298,-0.029531,-0.01196075,0.0,0 STARLINK-4629,1 53968U 22125E   22306.91667824 -.01196075  00000-0 -29531-1 0  9991,2 53968  53.2172 314.8480 0001254  50.3985 308.3298 15.42834303  1303,6815.886,93.335,438.606,436.896,0.0
53968.0,STARLINK-4629,PAYLOAD,2022-11-03 14:00:01,15.41149483,0.0001509,53.2168,311.7025,43.5734,57.9477,-0.032373,-0.01234993,0.0,0 STARLINK-4629,1 53968U 22125E   22307.58334491 -.01234993  00000-0 -32373-1 0  9996,2 53968  53.2168 311.7025 0001509  43.5734  57.9477 15.41149483  1301,6820.853,93.437,443.747,441.68800000000016,0.0
53968.0,STARLINK-4629,PAYLOAD,2022-11-03 22:00:00,15.40265159,0.0001529,53.2172,310.1285,50.8439,100.552,-0.032289,-0.01199442,0.0,0 STARLINK-4629,1 53968U 22125E   22307.91667824 -.01199442  00000-0 -32289-1 0  9997,2 53968  53.2172 310.1285 0001529  50.8439 100.5520 15.40265159  1304,6823.4630000000025,93.49,446.371,444.285,0.0
53968.0,STARLINK-4629,PAYLOAD,2022-11-04 14:00:01,15.38551893,0.0001477,53.2172,306.994,52.5173,195.5061,-0.034198,-0.01200233,0.0,0 STARLINK-4629,1 53968U 22125E   22308.58334491 -.01200233  00000-0 -34198-1 0  9994,2 53968  53.2172 306.9940 0001477  52.5173 195.5061 15.38551893  1305,6828.528,93.595,451.401,449.384,0.0
53968.0,STARLINK-4629,PAYLOAD,2022-11-04 20:00:01,15.3790541,0.0001584,53.2173,305.8187,48.8737,144.3254,-0.0347209999999999,-0.0119367,0.0,0 STARLINK-4629,1 53968U 22125E   22308.83334491 -.01193670  00000-0 -34721-1 0  9990,2 53968  53.2173 305.8187 0001584  48.8737 144.3254 15.37905410  5060,6830.441,93.634,453.388,451.224,0.0
53968.0,STARLINK-4629,PAYLOAD,2022-11-04 22:00:01,15.37696713,0.0001385,53.2173,305.4285,47.6648,247.191,-0.0352339999999999,-0.01202156,0.0,0 STARLINK-4629,1 53968U 22125E   22308.91668981 -.01202156  00000-0 -35234-1 0  9993,2 53968  53.2173 305.4285 0001385  47.6648 247.1910 15.37696713  1309,6831.059,93.647,453.87,451.978,0.0
53968.0,STARLINK-4629,PAYLOAD,2022-11-05 12:00:00,15.36192834,0.0001333,53.2172,302.6956,57.4527,226.7083,-0.036774,-0.01195396,0.0,0 STARLINK-4629,1 53968U 22125E   22309.50001157 -.01195396  00000-0 -36774-1 0  9992,2 53968  53.2172 302.6956 0001333  57.4527 226.7083 15.36192834  5166,6835.517,93.738,458.293,456.471,0.0
53968.0,STARLINK-4629,PAYLOAD,2022-11-05 14:00:01,15.35992002,0.0001496999999999,53.217,302.3058,44.1052,341.1945,-0.037687,-0.01215187,0.0,0 STARLINK-4629,1 53968U 22125E   22309.58335648 -.01215187  00000-0 -37687-1 0  9990,2 53968  53.2170 302.3058 0001497  44.1052 341.1945 15.35992002  1306,6836.113,93.75,459.001,456.954,0.0
53968.0,STARLINK-4629,PAYLOAD,2022-11-05 22:00:01,15.35124998,0.0001681,53.2173,300.7457,39.3763,29.6079,-0.038269,-0.01201344,0.0,0 STARLINK-4629,1 53968U 22125E   22309.91668981 -.01201344  00000-0 -38269-1 0  9993,2 53968  53.2173 300.7457 0001681  39.3763  29.6079 15.35124998  1301,6838.686,93.803,461.701,459.402,0.0
53968.0,STARLINK-4629,PAYLOAD,2022-11-06 06:00:00,15.34277814,0.0001466,53.2174,299.1904,53.3601,58.2039,-0.039793,-0.01214307,0.0,0 STARLINK-4629,1 53968U 22125E   22310.25001157 -.01214307  00000-0 -39793-1 0  9994,2 53968  53.2174 299.1904 0001466  53.3601  58.2039 15.34277814  5288,6841.203,93.855,464.071,462.066,0.0
53968.0,STARLINK-4629,PAYLOAD,2022-11-06 14:00:01,15.33436466,0.0001671,53.2169,297.6353,46.4109,106.7643,-0.041614,-0.01251795,0.0,0 STARLINK-4629,1 53968U 22125E   22310.58334491 -.01251795  00000-0 -41614-1 0  9997,2 53968  53.2169 297.6353 0001671  46.4109 106.7643 15.33436466  1305,6843.706,93.907,466.714,464.427,0.0
53968.0,STARLINK-4629,PAYLOAD,2022-11-07 06:00:00,15.31703696,0.0001441999999999,53.2175,294.5318,62.3835,170.95,-0.043011,-0.01226909,0.0,0 STARLINK-4629,1 53968U 22125E   22311.25001157 -.01226909  00000-0 -43011-1 0  9994,2 53968  53.2175 294.5318 0001442  62.3835 170.9500 15.31703696  5431,6848.866,94.013,471.719,469.74300000000005,0.0
